start=new Date('2023-02-26T00:00:00.000Z').valueOf();
sats=[{"INCLINATION":"53.0532","REV_AT_EPOCH":"11596","MEAN_ANOMALY":"241.4524","PERIOD":"95.590","NORAD_CAT_ID":"47352","SEMIMAJOR_AXIS":"6925.264","ELEMENT_SET_NO":"999","MEAN_MOTION_DOT":"0.00020608","MEAN_MOTION":"15.06427554","MEAN_ELEMENT_THEORY":"SGP4","DECAY_DATE":null,"TIME_SYSTEM":"UTC","APOAPSIS":"548.191","ARG_OF_PERICENTER":"118.6619","SITE":"AFETR","MEAN_MOTION_DDOT":"0.0000000000000","OBJECT_NAME":"STARLINK-2034","OBJECT_TYPE":"PAYLOAD","RA_OF_ASC_NODE":"357.7902","BSTAR":"0.00139730000000","ECCENTRICITY":"0.00015340","EPHEMERIS_TYPE":"0","CLASSIFICATION_TYPE":"U","FILE":"3837605","TLE_LINE1":"1 47352U 21005D   23056.20893090  .00020608  00000-0  13973-2 0  9997","EPOCH":"2023-02-25T05:00:51.629760","COUNTRY_CODE":"US","TLE_LINE2":"2 47352  53.0532 357.7902 0001534 118.6619 241.4524 15.06427554115962","PERIAPSIS":"546.067","REF_FRAME":"TEME","OBJECT_ID":"2021-005D","CENTER_NAME":"EARTH","GP_ID":"226856385","LAUNCH_DATE":"2021-01-20","RCS_SIZE":"LARGE"},{"MEAN_ANOMALY":"252.0375","PERIOD":"95.592","INCLINATION":"53.0520","REV_AT_EPOCH":"11683","MEAN_ELEMENT_THEORY":"SGP4","TIME_SYSTEM":"UTC","DECAY_DATE":null,"SEMIMAJOR_AXIS":"6925.352","NORAD_CAT_ID":"47353","ELEMENT_SET_NO":"999","MEAN_MOTION_DOT":"0.00004508","MEAN_MOTION":"15.06398895","APOAPSIS":"548.080","RA_OF_ASC_NODE":"300.0099","OBJECT_TYPE":"PAYLOAD","BSTAR":"0.00032133000000","ECCENTRICITY":"0.00012460","EPHEMERIS_TYPE":"0","ARG_OF_PERICENTER":"108.0750","SITE":"AFETR","MEAN_MOTION_DDOT":"0.0000000000000","OBJECT_NAME":"STARLINK-2045","CLASSIFICATION_TYPE":"U","FILE":"3839003","EPOCH":"2023-02-25T19:51:53.999712","COUNTRY_CODE":"US","TLE_LINE1":"1 47353U 21005E   23056.82770833  .00004508  00000-0  32133-3 0  9996","PERIAPSIS":"546.354","REF_FRAME":"TEME","TLE_LINE2":"2 47353  53.0520 300.0099 0001246 108.0750 252.0375 15.06398895116831","GP_ID":"226912714","LAUNCH_DATE":"2021-01-20","RCS_SIZE":"LARGE","OBJECT_ID":"2021-005E","CENTER_NAME":"EARTH"},{"OBJECT_ID":"2021-005F","CENTER_NAME":"EARTH","GP_ID":"226854884","LAUNCH_DATE":"2021-01-20","RCS_SIZE":"LARGE","TLE_LINE2":"2 47354  53.0548 322.9220 0001137  81.5946 278.5172 15.06405696116456","PERIAPSIS":"546.409","REF_FRAME":"TEME","TLE_LINE1":"1 47354U 21005F   23056.17718942  .00025753  00000-0  17412-2 0  9995","EPOCH":"2023-02-25T04:15:09.165888","COUNTRY_CODE":"US","CLASSIFICATION_TYPE":"U","FILE":"3837605","ARG_OF_PERICENTER":"81.5946","SITE":"AFETR","MEAN_MOTION_DDOT":"0.0000000000000","OBJECT_NAME":"STARLINK-2046","RA_OF_ASC_NODE":"322.9220","OBJECT_TYPE":"PAYLOAD","BSTAR":"0.00174120000000","EPHEMERIS_TYPE":"0","ECCENTRICITY":"0.00011370","APOAPSIS":"547.984","SEMIMAJOR_AXIS":"6925.331","NORAD_CAT_ID":"47354","ELEMENT_SET_NO":"999","MEAN_MOTION_DOT":"0.00025753","MEAN_MOTION":"15.06405696","MEAN_ELEMENT_THEORY":"SGP4","DECAY_DATE":null,"TIME_SYSTEM":"UTC","INCLINATION":"53.0548","REV_AT_EPOCH":"11645","MEAN_ANOMALY":"278.5172","PERIOD":"95.592"},{"TLE_LINE2":"2 47355  53.0543 304.8444 0001430  99.3256 260.7895 15.06389195116760","PERIAPSIS":"546.256","REF_FRAME":"TEME","CENTER_NAME":"EARTH","OBJECT_ID":"2021-005G","RCS_SIZE":"LARGE","GP_ID":"226911215","LAUNCH_DATE":"2021-01-20","FILE":"3839003","CLASSIFICATION_TYPE":"U","TLE_LINE1":"1 47355U 21005G   23056.86227250  .00022210  00000-0  15057-2 0  9997","EPOCH":"2023-02-25T20:41:40.344000","COUNTRY_CODE":"US","APOAPSIS":"548.237","OBJECT_NAME":"STARLINK-2047","ARG_OF_PERICENTER":"99.3256","SITE":"AFETR","MEAN_MOTION_DDOT":"0.0000000000000","EPHEMERIS_TYPE":"0","ECCENTRICITY":"0.00014300","RA_OF_ASC_NODE":"304.8444","OBJECT_TYPE":"PAYLOAD","BSTAR":"0.00150570000000","REV_AT_EPOCH":"11676","INCLINATION":"53.0543","PERIOD":"95.593","MEAN_ANOMALY":"260.7895","MEAN_MOTION_DOT":"0.00022210","MEAN_MOTION":"15.06389195","NORAD_CAT_ID":"47355","SEMIMAJOR_AXIS":"6925.382","ELEMENT_SET_NO":"999","DECAY_DATE":null,"TIME_SYSTEM":"UTC","MEAN_ELEMENT_THEORY":"SGP4"},{"OBJECT_TYPE":"PAYLOAD","RA_OF_ASC_NODE":"327.9214","BSTAR":"0.00123350000000","EPHEMERIS_TYPE":"0","ECCENTRICITY":"0.00012510","ARG_OF_PERICENTER":"68.1391","SITE":"AFETR","MEAN_MOTION_DDOT":"0.0000000000000","OBJECT_NAME":"STARLINK-2049","APOAPSIS":"547.957","MEAN_ELEMENT_THEORY":"SGP4","TIME_SYSTEM":"UTC","DECAY_DATE":null,"SEMIMAJOR_AXIS":"6925.226","NORAD_CAT_ID":"47356","ELEMENT_SET_NO":"999","MEAN_MOTION_DOT":"0.00018159","MEAN_MOTION":"15.06439986","MEAN_ANOMALY":"291.9731","PERIOD":"95.590","INCLINATION":"53.0540","REV_AT_EPOCH":"11638","GP_ID":"226855885","LAUNCH_DATE":"2021-01-20","RCS_SIZE":"LARGE","OBJECT_ID":"2021-005H","CENTER_NAME":"EARTH","PERIAPSIS":"546.225","REF_FRAME":"TEME","TLE_LINE2":"2 47356  53.0540 327.9214 0001251  68.1391 291.9731 15.06439986116381","EPOCH":"2023-02-25T04:17:03.810912","COUNTRY_CODE":"US","TLE_LINE1":"1 47356U 21005H   23056.17851633  .00018159  00000-0  12335-2 0  9993","CLASSIFICATION_TYPE":"U","FILE":"3837605"},{"FILE":"3837858","CLASSIFICATION_TYPE":"U","TLE_LINE1":"1 47357U 21005J   23056.12047609  .00028378  00000-0  19147-2 0  9991","COUNTRY_CODE":"US","EPOCH":"2023-02-25T02:53:29.134176","TLE_LINE2":"2 47357  53.0540 358.1861 0001252 102.6444 257.4685 15.06431843116907","REF_FRAME":"TEME","PERIAPSIS":"546.249","OBJECT_ID":"2021-005J","CENTER_NAME":"EARTH","LAUNCH_DATE":"2021-01-20","GP_ID":"226866022","RCS_SIZE":"LARGE","INCLINATION":"53.0540","REV_AT_EPOCH":"11690","MEAN_ANOMALY":"257.4685","PERIOD":"95.590","ELEMENT_SET_NO":"999","SEMIMAJOR_AXIS":"6925.251","NORAD_CAT_ID":"47357","MEAN_MOTION":"15.06431843","MEAN_MOTION_DOT":"0.00028378","MEAN_ELEMENT_THEORY":"SGP4","DECAY_DATE":null,"TIME_SYSTEM":"UTC","APOAPSIS":"547.983","SITE":"AFETR","MEAN_MOTION_DDOT":"0.0000000000000","ARG_OF_PERICENTER":"102.6444","OBJECT_NAME":"STARLINK-2050","BSTAR":"0.00191470000000","OBJECT_TYPE":"PAYLOAD","RA_OF_ASC_NODE":"358.1861","ECCENTRICITY":"0.00012520","EPHEMERIS_TYPE":"0"},{"RCS_SIZE":"LARGE","LAUNCH_DATE":"2021-01-20","GP_ID":"226855385","CENTER_NAME":"EARTH","OBJECT_ID":"2021-005K","REF_FRAME":"TEME","PERIAPSIS":"546.406","TLE_LINE2":"2 47358  53.0532 328.1652 0001016 104.4779 255.6322 15.06434053116378","COUNTRY_CODE":"US","EPOCH":"2023-02-25T02:56:06.100512","TLE_LINE1":"1 47358U 21005K   23056.12229283  .00025180  00000-0  17017-2 0  9994","FILE":"3837605","CLASSIFICATION_TYPE":"U","ECCENTRICITY":"0.00010160","EPHEMERIS_TYPE":"0","BSTAR":"0.00170170000000","OBJECT_TYPE":"PAYLOAD","RA_OF_ASC_NODE":"328.1652","OBJECT_NAME":"STARLINK-2055","MEAN_MOTION_DDOT":"0.0000000000000","SITE":"AFETR","ARG_OF_PERICENTER":"104.4779","APOAPSIS":"547.813","TIME_SYSTEM":"UTC","DECAY_DATE":null,"MEAN_ELEMENT_THEORY":"SGP4","MEAN_MOTION":"15.06434053","MEAN_MOTION_DOT":"0.00025180","ELEMENT_SET_NO":"999","NORAD_CAT_ID":"47358","SEMIMAJOR_AXIS":"6925.244","PERIOD":"95.590","MEAN_ANOMALY":"255.6322","REV_AT_EPOCH":"11637","INCLINATION":"53.0532"},{"TLE_LINE1":"1 47359U 21005L   23056.20018579  .00020748  00000-0  14065-2 0  9993","EPOCH":"2023-02-25T04:48:16.052256","COUNTRY_CODE":"US","FILE":"3837605","CLASSIFICATION_TYPE":"U","CENTER_NAME":"EARTH","OBJECT_ID":"2021-005L","RCS_SIZE":"LARGE","GP_ID":"226855135","LAUNCH_DATE":"2021-01-20","TLE_LINE2":"2 47359  53.0539 352.8267 0001647 109.2625 250.8542 15.06430752116031","PERIAPSIS":"545.979","REF_FRAME":"TEME","MEAN_MOTION_DOT":"0.00020748","MEAN_MOTION":"15.06430752","SEMIMAJOR_AXIS":"6925.254","NORAD_CAT_ID":"47359","ELEMENT_SET_NO":"999","DECAY_DATE":null,"TIME_SYSTEM":"UTC","MEAN_ELEMENT_THEORY":"SGP4","REV_AT_EPOCH":"11603","INCLINATION":"53.0539","PERIOD":"95.590","MEAN_ANOMALY":"250.8542","OBJECT_NAME":"STARLINK-2069","ARG_OF_PERICENTER":"109.2625","SITE":"AFETR","MEAN_MOTION_DDOT":"0.0000000000000","EPHEMERIS_TYPE":"0","ECCENTRICITY":"0.00016470","OBJECT_TYPE":"PAYLOAD","RA_OF_ASC_NODE":"352.8267","BSTAR":"0.00140650000000","APOAPSIS":"548.260"},{"GP_ID":"226911966","LAUNCH_DATE":"2021-01-20","RCS_SIZE":"LARGE","OBJECT_ID":"2021-005M","CENTER_NAME":"EARTH","PERIAPSIS":"546.413","REF_FRAME":"TEME","TLE_LINE2":"2 47360  53.0529 319.8200 0001189 117.0711 243.0400 15.06392560116565","EPOCH":"2023-02-25T20:52:56.500032","COUNTRY_CODE":"US","TLE_LINE1":"1 47360U 21005M   23056.87009838  .00018275  00000-0  12428-2 0  9999","CLASSIFICATION_TYPE":"U","FILE":"3839003","OBJECT_TYPE":"PAYLOAD","RA_OF_ASC_NODE":"319.8200","BSTAR":"0.00124280000000","EPHEMERIS_TYPE":"0","ECCENTRICITY":"0.00011890","ARG_OF_PERICENTER":"117.0711","MEAN_MOTION_DDOT":"0.0000000000000","SITE":"AFETR","OBJECT_NAME":"STARLINK-2070","APOAPSIS":"548.060","MEAN_ELEMENT_THEORY":"SGP4","TIME_SYSTEM":"UTC","DECAY_DATE":null,"SEMIMAJOR_AXIS":"6925.371","NORAD_CAT_ID":"47360","ELEMENT_SET_NO":"999","MEAN_MOTION_DOT":"0.00018275","MEAN_MOTION":"15.06392560","MEAN_ANOMALY":"243.0400","PERIOD":"95.593","INCLINATION":"53.0529","REV_AT_EPOCH":"11656"},{"CLASSIFICATION_TYPE":"U","FILE":"3837605","COUNTRY_CODE":"US","EPOCH":"2023-02-25T01:32:31.105824","TLE_LINE1":"1 47361U 21005N   23056.06424891  .00019175  00000-0  13014-2 0  9993","REF_FRAME":"TEME","PERIAPSIS":"546.359","TLE_LINE2":"2 47361  53.0528 328.4291 0001069 111.9874 248.1229 15.06437346116366","LAUNCH_DATE":"2021-01-20","GP_ID":"226856624","RCS_SIZE":"LARGE","OBJECT_ID":"2021-005N","CENTER_NAME":"EARTH","MEAN_ANOMALY":"248.1229","PERIOD":"95.590","INCLINATION":"53.0528","REV_AT_EPOCH":"11636","MEAN_ELEMENT_THEORY":"SGP4","DECAY_DATE":null,"TIME_SYSTEM":"UTC","ELEMENT_SET_NO":"999","SEMIMAJOR_AXIS":"6925.234","NORAD_CAT_ID":"47361","MEAN_MOTION":"15.06437346","MEAN_MOTION_DOT":"0.00019175","APOAPSIS":"547.839","BSTAR":"0.00130140000000","RA_OF_ASC_NODE":"328.4291","OBJECT_TYPE":"PAYLOAD","ECCENTRICITY":"0.00010690","EPHEMERIS_TYPE":"0","SITE":"AFETR","MEAN_MOTION_DDOT":"0.0000000000000","ARG_OF_PERICENTER":"111.9874","OBJECT_NAME":"STARLINK-2071"}];
